NORAD_CAT_ID,OBJECT_NAME,OBJECT_TYPE,EPOCH,MEAN_MOTION,ECCENTRICITY,INCLINATION,RA_OF_ASC_NODE,ARG_OF_PERICENTER,MEAN_ANOMALY,BSTAR,MEAN_MOTION_DOT,MEAN_MOTION_DDOT,TLE_LINE0,TLE_LINE1,TLE_LINE2,SEMIMAJOR_AXIS,PERIOD,APOGEE,PERIGEE,DECAYED
52307.0,STARLINK-3755,PAYLOAD,2022-05-25 14:00:01,15.73208985,0.0004189,53.2157,207.0286,2.4153,151.4583,0.00035511,0.00049548,0.0,0 STARLINK-3755,1 52307U 22041AY  22145.58334491  .00049548  00000-0  35511-3 0  9995,2 52307  53.2157 207.0286 0004189   2.4153 151.4583 15.73208985  1303,6727.87,91.533,352.55300000000005,346.916,0.0
52307.0,STARLINK-3755,PAYLOAD,2022-05-25 22:00:00,15.73229928,0.0003955,53.2154,205.3772,1.0814,241.7624,-0.00017973,-0.00025815,0.0,0 STARLINK-3755,1 52307U 22041AY  22145.91667824 -.00025815  00000-0 -17973-3 0  9996,2 52307  53.2154 205.3772 0003955   1.0814 241.7624 15.73229928  1309,6727.81,91.531,352.336,347.014,0.0
52307.0,STARLINK-3755,PAYLOAD,2022-05-26 10:41:39,15.73236095,0.0004611,53.2165,202.7595,8.5053,351.6044,2.7123e-05,3.19e-05,0.0,0 STARLINK-3755,1 52307U 22041AY  22146.44559206  .00003190  00000-0  27123-4 0  9998,2 52307  53.2165 202.7595 0004611   8.5053 351.6044 15.73236095  6699,6727.792,91.531,352.759,346.555,0.0
52307.0,STARLINK-3755,PAYLOAD,2022-05-26 14:00:01,15.73121839,0.000415,53.2156,202.0802,1.9838,58.7405,0.00028477,0.00039413,0.0,0 STARLINK-3755,1 52307U 22041AY  22146.58334491  .00039413  00000-0  28477-3 0  9999,2 52307  53.2156 202.0802 0004150   1.9838  58.7405 15.73121839  1307,6728.118,91.538,352.775,347.191,0.0
52307.0,STARLINK-3755,PAYLOAD,2022-05-26 20:00:01,15.73152929,0.0004102,53.2156,200.8417,1.4892,35.8727,0.00016062,0.00021941,0.0,0 STARLINK-3755,1 52307U 22041AY  22146.83334491  .00021941  00000-0  16062-3 0  9991,2 52307  53.2156 200.8417 0004102   1.4892  35.8727 15.73152929  6758,6728.029,91.536,352.654,347.135,0.0
52307.0,STARLINK-3755,PAYLOAD,2022-05-26 22:00:00,15.73141749,0.0004053,53.2158,200.4288,1.4327,148.1519,0.00044069,0.00061548,0.0,0 STARLINK-3755,1 52307U 22041AY  22146.91667824  .00061548  00000-0  44069-3 0  9994,2 52307  53.2158 200.4288 0004053   1.4327 148.1519 15.73141749  1301,6728.061,91.537,352.653,347.199,0.0
52307.0,STARLINK-3755,PAYLOAD,2022-05-27 12:36:50,15.73185268,0.0003977,53.2162,197.4157,7.8889,352.2193,-3.9264e-05,-6.13e-05,0.0,0 STARLINK-3755,1 52307U 22041AY  22147.52558911 -.00006130  00000-0 -39264-4 0  9998,2 52307  53.2162 197.4157 0003977   7.8889 352.2193 15.73185268  5655,6727.937,91.534,352.478,347.126,0.0
52307.0,STARLINK-3755,PAYLOAD,2022-05-27 22:00:01,15.73170819,0.000399,53.2151,195.4803,2.1393,54.2537,0.00047934,0.00067128,0.0,0 STARLINK-3755,1 52307U 22041AY  22147.91668981  .00067128  00000-0  47934-3 0  9994,2 52307  53.2151 195.4803 0003990   2.1393  54.2537 15.73170819  6920,6727.978,91.535,352.528,347.159,0.0
52307.0,STARLINK-3755,PAYLOAD,2022-05-28 14:00:01,15.73249166,0.0004241,53.215,192.1834,0.7363,233.518,-0.00017685,-0.00025436,0.0,0 STARLINK-3755,1 52307U 22041AY  22148.58334491 -.00025436  00000-0 -17685-3 0  9992,2 52307  53.2150 192.1834 0004241   0.7363 233.5180 15.73249166  1303,6727.755,91.53,352.473,346.767,0.0
52307.0,STARLINK-3755,PAYLOAD,2022-05-28 22:00:00,15.73216612,0.0004023,53.2152,190.5316,0.1563,323.1182,0.00021973,0.00030359,0.0,0 STARLINK-3755,1 52307U 22041AY  22148.91667824  .00030359  00000-0  21973-3 0  9991,2 52307  53.2152 190.5316 0004023   0.1563 323.1182 15.73216612  7085,6727.848000000001,91.532,352.4190000000001,347.006,0.0
52307.0,STARLINK-3755,PAYLOAD,2022-05-29 04:00:00,15.732381,0.0003995,53.2154,189.2944,2.2959,297.6826,-0.0002268,-0.00032399,0.0,0 STARLINK-3755,1 52307U 22041AY  22149.16667824 -.00032399  00000-0 -22680-3 0  9993,2 52307  53.2154 189.2944 0003995   2.2959 297.6826 15.73238100  7129,6727.7869999999975,91.531,352.339,346.964,0.0
52307.0,STARLINK-3755,PAYLOAD,2022-05-29 14:00:01,15.73169108,0.000427,53.2147,187.2344,0.9708,140.167,-0.00034535,-0.00048776,0.0,0 STARLINK-3755,1 52307U 22041AY  22149.58334491 -.00048776  00000-0 -34535-3 0  9998,2 52307  53.2147 187.2344 0004270   0.9708 140.1670 15.73169108  7183,6727.983,91.535,352.721,346.975,0.0
52307.0,STARLINK-3755,PAYLOAD,2022-05-29 19:30:07,15.73192484,0.0004264,53.2154,186.0985,9.5729,350.5371,-3.5694e-05,-5.632e-05,0.0,0 STARLINK-3755,1 52307U 22041AY  22149.81258433 -.00005632  00000-0 -35694-4 0  9997,2 52307  53.2154 186.0985 0004264   9.5729 350.5371 15.73192484  6019,6727.917,91.534,352.65,346.913,0.0
52307.0,STARLINK-3755,PAYLOAD,2022-05-30 06:00:00,15.73127225,0.0004015,53.2146,183.9345,359.0669,319.7885,0.00072082,0.00101487,0.0,0 STARLINK-3755,1 52307U 22041AY  22150.25001157  .00101487  00000-0  72082-3 0  9990,2 52307  53.2146 183.9345 0004015 359.0669 319.7885 15.73127225  7295,6728.103,91.537,352.6690000000001,347.266,0.0
52307.0,STARLINK-3755,PAYLOAD,2022-05-30 14:00:01,15.73228595,0.0004265,53.2143,182.2863,356.8452,50.8825,0.00032665,0.00045545,0.0,0 STARLINK-3755,1 52307U 22041AY  22150.58334491  .00045545  00000-0  32665-3 0  9991,2 52307  53.2143 182.2863 0004265 356.8452  50.8825 15.73228595  1306,6727.814,91.532,352.548,346.809,0.0
52307.0,STARLINK-3755,PAYLOAD,2022-05-30 22:00:00,15.73212939,0.0003974,53.2147,180.6344,355.834,140.889,0.00015639,0.00021401,0.0,0 STARLINK-3755,1 52307U 22041AY  22150.91667824  .00021401  00000-0  15639-3 0  9994,2 52307  53.2147 180.6344 0003974 355.8340 140.8890 15.73212939  7399,6727.858,91.532,352.397,347.05,0.0
52307.0,STARLINK-3755,PAYLOAD,2022-05-31 06:00:02,15.73221398,0.0004087,53.2149,178.9858,359.7763,225.9686,-0.00026438,-0.00037616,0.0,0 STARLINK-3755,1 52307U 22041AY  22151.25002315 -.00037616  00000-0 -26438-3 0  9996,2 52307  53.2149 178.9858 0004087 359.7763 225.9686 15.73221398  1301,6727.834,91.532,352.449,346.95,0.0
52307.0,STARLINK-3755,PAYLOAD,2022-05-31 12:40:06,15.73196235,0.0004242,53.2152,177.6096,5.6975,354.4093,-2.7369e-07,-6.64e-06,0.0,0 STARLINK-3755,1 52307U 22041AY  22151.52784911 -.00000664  00000-0 -27369-6 0  9995,2 52307  53.2152 177.6096 0004242   5.6975 354.4093 15.73196235  7497,6727.906,91.533,352.625,346.917,0.0
52307.0,STARLINK-3755,PAYLOAD,2022-05-31 22:00:00,15.732108600000002,0.0004016,53.2143,175.6856,2.8584,40.689,0.00045408,0.00063642,0.0,0 STARLINK-3755,1 52307U 22041AY  22151.91667824  .00063642  00000-0  45408-3 0  9995,2 52307  53.2143 175.6856 0004016   2.8584  40.6890 15.73210860  7550,6727.864000000001,91.533,352.431,347.027,0.0
52307.0,STARLINK-3755,PAYLOAD,2022-06-01 10:00:47,15.73235275,0.0004201,53.2153,173.2087,5.4394,354.6671,9.9565e-05,0.00013398,0.0,0 STARLINK-3755,1 52307U 22041AY  22152.41722193  .00013398  00000-0  99565-4 0  9999,2 52307  53.2153 173.2087 0004201   5.4394 354.6671 15.73235275  7636,6727.795,91.531,352.486,346.833,0.0
52307.0,STARLINK-3755,PAYLOAD,2022-06-01 20:00:01,15.72747918,0.0004492,53.2168,171.148,358.2236,200.1151,0.0037495,0.00550917,0.0,0 STARLINK-3755,1 52307U 22041AY  22152.83334491  .00550917  00000-0  37495-2 0  9990,2 52307  53.2168 171.1480 0004492 358.2236 200.1151 15.72747918  7697,6729.184,91.559,354.07199999999995,348.027,0.0
52307.0,STARLINK-3755,PAYLOAD,2022-06-02 18:01:51,15.7322298,0.000217,53.2152,166.6059,339.1193,20.9738,-4.9165e-06,-1.312e-05,0.0,0 STARLINK-3755,1 52307U 22041AY  22153.75129213 -.00001312  00000-0 -49165-5 0  9998,2 52307  53.2152 166.6059 0002170 339.1193  20.9738 15.73222980  7846,6727.83,91.532,351.155,348.235,0.0
52307.0,STARLINK-3755,PAYLOAD,2022-06-03 12:19:37,15.73226612,0.0004104,53.2156,162.8342,2.9944,357.11,2.2697e-06,-3.06e-06,0.0,0 STARLINK-3755,1 52307U 22041AY  22154.51362712 -.00000306  00000-0  22697-5 0  9998,2 52307  53.2156 162.8342 0004104   2.9944 357.1100 15.73226612  6754,6727.819,91.532,352.445,346.923,0.0
52307.0,STARLINK-3755,PAYLOAD,2022-06-04 05:05:56,15.73157958,0.0004598,53.2157,159.3762,2.2567,357.8473,-6.951e-05,-0.00010357,0.0,0 STARLINK-3755,1 52307U 22041AY  22155.21246440 -.00010357  00000-0 -69510-4 0  9997,2 52307  53.2157 159.3762 0004598   2.2567 357.8473 15.73157958  8076,6728.015,91.536,352.974,346.786,0.0
52307.0,STARLINK-3755,PAYLOAD,2022-06-04 11:12:05,15.72879115,0.0003766,53.2158,158.12,357.1884,2.9114,-0.00048665,-0.0006747999999999,0.0,0 STARLINK-3755,1 52307U 22041AY  22155.46673411 -.00067480  00000-0 -48665-3 0  9992,2 52307  53.2158 158.1200 0003766 357.1884   2.9114 15.72879115  8111,6728.81,91.552,353.209,348.141,0.0
52307.0,STARLINK-3755,PAYLOAD,2022-06-05 22:00:00,15.70543442,0.0003845,53.2173,150.9726,323.6506,325.4615,-0.0060766,-0.00702337,0.0,0 STARLINK-3755,1 52307U 22041AY  22156.91667824 -.00702337  00000-0 -60766-2 0  9996,2 52307  53.2173 150.9726 0003845 323.6506 325.4615 15.70543442  8341,6735.48,91.688,359.935,354.755,0.0
52307.0,STARLINK-3755,PAYLOAD,2022-06-06 14:00:01,15.69542108,0.0001832,53.2173,147.6956,279.7189,179.6411,-0.0066513999999999,-0.00733756,0.0,0 STARLINK-3755,1 52307U 22041AY  22157.58334491 -.00733756  00000-0 -66514-2 0  9997,2 52307  53.2173 147.6956 0001832 279.7189 179.6411 15.69542108  1309,6738.344,91.747,361.444,358.975,0.0
52307.0,STARLINK-3755,PAYLOAD,2022-06-06 22:00:00,15.69025952,7.53e-05,53.2175,146.0567,7.7352,175.8368,-0.0066936,-0.00723373,0.0,0 STARLINK-3755,1 52307U 22041AY  22157.91667824 -.00723373  00000-0 -66936-2 0  9995,2 52307  53.2175 146.0567 0000753   7.7352 175.8368 15.69025952  8493,6739.821999999999,91.777,362.194,361.179,0.0
52307.0,STARLINK-3755,PAYLOAD,2022-06-07 14:00:01,15.68003055,0.0001014,53.2173,142.7871,82.4176,267.7326,-0.0069228,-0.00717705,0.0,0 STARLINK-3755,1 52307U 22041AY  22158.58334491 -.00717705  00000-0 -69228-2 0  9999,2 52307  53.2173 142.7871 0001014  82.4176 267.7326 15.68003055  1304,6742.753000000002,91.837,365.302,363.934,0.0
